ASTROCAST-0403          
1 55111U 23001DG  26068.82333059  .00013959  00000+0  51317-3 0  9990
2 55111  97.5604 161.3228 0004771 338.0704  22.0330 15.28004949129377
STARLINK-32182          
1 60319U 24133U   26068.05834168  .00000255  00000+0  20727-4 0  9992
2 60319  53.1600 299.9979 0001080  85.6382 274.4742 15.30193796 91544
